[{"OBJECT_NAME":"STARLINK-30836","OBJECT_ID":"2023-170R","EPOCH":"2026-03-09T22:00:01.999584","MEAN_MOTION":15.26882278,"ECCENTRICITY":0.00016104,"INCLINATION":43.0035,"RA_OF_ASC_NODE":192.7696,"ARG_OF_PERICENTER":280.2971,"MEAN_ANOMALY":170.7164,"EPHEMERIS_TYPE":0,"CLASSIFICATION_TYPE":"U","NORAD_CAT_ID":58221,"ELEMENT_SET_NO":999,"REV_AT_EPOCH":578,"BSTAR":0.0014588307,"MEAN_MOTION_DOT":0.0003925,"MEAN_MOTION_DDOT":0},{"OBJECT_NAME":"YAOGAN-43 01H","OBJECT_ID":"2024-148H","EPOCH":"2026-03-10T00:13:57.702432","MEAN_MOTION":15.25826805,"ECCENTRICITY":0.000635,"INCLINATION":34.994,"RA_OF_ASC_NODE":64.6147,"ARG_OF_PERICENTER":359.2394,"MEAN_ANOMALY":0.8311,"EPHEMERIS_TYPE":0,"CLASSIFICATION_TYPE":"U","NORAD_CAT_ID":60465,"ELEMENT_SET_NO":999,"REV_AT_EPOCH":8702,"BSTAR":0.00039232254,"MEAN_MOTION_DOT":0.00010268,"MEAN_MOTION_DDOT":0}]
